CSS (TIANHE)            
1 48274U 21035A   23216.05653874  .00014239  00000+0  17067-3 0  9990
2 48274  41.4728 225.0000 0006833  72.4297 287.7288 15.60627191129319
